GPS BIII-1  (PRN 04)    
1 43873U 18109A   25334.07917270  .00000039  00000+0  00000+0 0  9994
2 43873  55.5593 100.0473 0037185 194.4195 167.8950  2.00553137 51087
GPS BIII-2  (PRN 18)    
1 44506U 19056A   25333.18618578 -.00000050  00000+0  00000+0 0  9994
2 44506  55.7261 339.0921 0057789 198.3088 135.6589  2.00565646 46053
GPS BIII-3  (PRN 23)    
1 45854U 20041A   25334.03144771 -.00000064  00000+0  00000+0 0  9996
2 45854  56.5380  36.6817 0060212 202.8412 325.7330  2.00561909 40049
GPS BIII-4  (PRN 14)    
1 46826U 20078A   25316.12603230 -.00000034  00000+0  00000+0 0  9993
2 46826  54.0223 219.5836 0063911 203.4985 326.7754  2.00567032 37154
GPS BIII-5  (PRN 11)    
1 48859U 21054A   25333.87079222 -.00000053  00000+0  00000+0 0  9996
2 48859  55.2609 340.4719 0024628 233.0444 336.1913  2.00554013 32756
GPS BIII-6  (PRN 28)    
1 55268U 23009A   25334.02266568  .00000129  00000+0  00000+0 0  9992
2 55268  55.1054 156.3454 0003483 359.6796   1.4566  2.00556632 21250
GPS BIII-7  (PRN 01)    
1 62339U 24242A   25330.92836440 -.00000056  00000+0  00000+0 0  9996
2 62339  54.9285 342.3820 0011414 343.1444  20.6436  2.00567458  7201
GPS BIII-8  (PRN 21)    
1 64202U 25116A   25331.65075464 -.00000060  00000+0  00000+0 0  9995
2 64202  55.0944  39.2516 0004863 304.4210  50.9436  2.00559190  3825
